CCSDS_OMM_VERS = 2.0
CREATION_DATE  = 
ORIGINATOR     = 

OBJECT_NAME    = STARLINK-35473
OBJECT_ID      = 2025-225AD
CENTER_NAME    = EARTH
REF_FRAME      = TEME
TIME_SYSTEM    = UTC
MEAN_ELEMENT_THEORY = SGP/SGP4

EPOCH          = 2025-10-26T23:19:42.315456
MEAN_MOTION    = 15.74285201
ECCENTRICITY   = .00010024
INCLINATION    = 53.1597
RA_OF_ASC_NODE = 70.4686
ARG_OF_PERICENTER = 56.0509
MEAN_ANOMALY   = 304.0606

EPHEMERIS_TYPE = 0
CLASSIFICATION_TYPE = U
NORAD_CAT_ID   = 65937
ELEMENT_SET_NO = 999
REV_AT_EPOCH   = 299
BSTAR          = .1777207E-2
MEAN_MOTION_DOT = .269255E-2
MEAN_MOTION_DDOT = 0

CCSDS_OMM_VERS = 2.0
CREATION_DATE  = 
ORIGINATOR     = 

OBJECT_NAME    = 2025-226A
OBJECT_ID      = 2025-226A
CENTER_NAME    = EARTH
REF_FRAME      = TEME
TIME_SYSTEM    = UTC
MEAN_ELEMENT_THEORY = SGP/SGP4

EPOCH          = 2025-10-26T23:07:02.733312
MEAN_MOTION    = 15.11727834
ECCENTRICITY   = .00144983
INCLINATION    = 97.6664
RA_OF_ASC_NODE = 14.1395
ARG_OF_PERICENTER = 226.8067
MEAN_ANOMALY   = 133.1953

EPHEMERIS_TYPE = 0
CLASSIFICATION_TYPE = U
NORAD_CAT_ID   = 65938
ELEMENT_SET_NO = 999
REV_AT_EPOCH   = 240
BSTAR          = .67820553E-3
MEAN_MOTION_DOT = .11528E-3
MEAN_MOTION_DDOT = 0

CCSDS_OMM_VERS = 2.0
CREATION_DATE  = 
ORIGINATOR     = 

OBJECT_NAME    = 2025-226B
OBJECT_ID      = 2025-226B
CENTER_NAME    = EARTH
REF_FRAME      = TEME
TIME_SYSTEM    = UTC
MEAN_ELEMENT_THEORY = SGP/SGP4

EPOCH          = 2025-10-26T23:30:17.097984
MEAN_MOTION    = 15.09630287
ECCENTRICITY   = .00205153
INCLINATION    = 97.6621
RA_OF_ASC_NODE = 14.1105
ARG_OF_PERICENTER = 230.0635
MEAN_ANOMALY   = 129.8792

EPHEMERIS_TYPE = 0
CLASSIFICATION_TYPE = U
NORAD_CAT_ID   = 65939
ELEMENT_SET_NO = 999
REV_AT_EPOCH   = 239
BSTAR          = .40420755E-3
MEAN_MOTION_DOT = .6468E-4
MEAN_MOTION_DDOT = 0

CCSDS_OMM_VERS = 2.0
CREATION_DATE  = 
ORIGINATOR     = 

OBJECT_NAME    = 2025-226C
OBJECT_ID      = 2025-226C
CENTER_NAME    = EARTH
REF_FRAME      = TEME
TIME_SYSTEM    = UTC
MEAN_ELEMENT_THEORY = SGP/SGP4

EPOCH          = 2025-10-26T23:08:43.795392
MEAN_MOTION    = 15.11616174
ECCENTRICITY   = .00144536
INCLINATION    = 97.6572
RA_OF_ASC_NODE = 14.1212
ARG_OF_PERICENTER = 224.6675
MEAN_ANOMALY   = 135.3391

EPHEMERIS_TYPE = 0
CLASSIFICATION_TYPE = U
NORAD_CAT_ID   = 65940
ELEMENT_SET_NO = 999
REV_AT_EPOCH   = 239
BSTAR          = .68108719E-3
MEAN_MOTION_DOT = .11542E-3
MEAN_MOTION_DDOT = 0

CCSDS_OMM_VERS = 2.0
CREATION_DATE  = 
ORIGINATOR     = 

OBJECT_NAME    = YOTSUBA-KULOVER
OBJECT_ID      = 1998-067XN
CENTER_NAME    = EARTH
REF_FRAME      = TEME
TIME_SYSTEM    = UTC
MEAN_ELEMENT_THEORY = SGP/SGP4

EPOCH          = 2025-10-26T10:30:02.017440
MEAN_MOTION    = 15.52498058
ECCENTRICITY   = .00023548
INCLINATION    = 51.6338
RA_OF_ASC_NODE = 16.4226
ARG_OF_PERICENTER = 309.1775
MEAN_ANOMALY   = 50.9005

EPHEMERIS_TYPE = 0
CLASSIFICATION_TYPE = U
NORAD_CAT_ID   = 65941
ELEMENT_SET_NO = 999
REV_AT_EPOCH   = 249
BSTAR          = .81795852E-3
MEAN_MOTION_DOT = .50897E-3
MEAN_MOTION_DDOT = 0

CCSDS_OMM_VERS = 2.0
CREATION_DATE  = 
ORIGINATOR     = 

OBJECT_NAME    = BOTAN
OBJECT_ID      = 1998-067XP
CENTER_NAME    = EARTH
REF_FRAME      = TEME
TIME_SYSTEM    = UTC
MEAN_ELEMENT_THEORY = SGP/SGP4

EPOCH          = 2025-10-26T15:03:30.874752
MEAN_MOTION    = 15.53142007
ECCENTRICITY   = .00041915
INCLINATION    = 51.6339
RA_OF_ASC_NODE = 15.4407
ARG_OF_PERICENTER = 334.4540
MEAN_ANOMALY   = 25.6243

EPHEMERIS_TYPE = 0
CLASSIFICATION_TYPE = U
NORAD_CAT_ID   = 65942
ELEMENT_SET_NO = 999
REV_AT_EPOCH   = 252
BSTAR          = .11331221E-2
MEAN_MOTION_DOT = .72575E-3
MEAN_MOTION_DDOT = 0

CCSDS_OMM_VERS = 2.0
CREATION_DATE  = 
ORIGINATOR     = 

OBJECT_NAME    = E-KAGAKU-1
OBJECT_ID      = 1998-067XQ
CENTER_NAME    = EARTH
REF_FRAME      = TEME
TIME_SYSTEM    = UTC
MEAN_ELEMENT_THEORY = SGP/SGP4

EPOCH          = 2025-10-26T10:29:28.283424
MEAN_MOTION    = 15.52513453
ECCENTRICITY   = .00040855
INCLINATION    = 51.6337
RA_OF_ASC_NODE = 16.4198
ARG_OF_PERICENTER = 323.6954
MEAN_ANOMALY   = 36.3758

EPHEMERIS_TYPE = 0
CLASSIFICATION_TYPE = U
NORAD_CAT_ID   = 65943
ELEMENT_SET_NO = 999
REV_AT_EPOCH   = 249
BSTAR          = .79166282E-3
MEAN_MOTION_DOT = .49272E-3
MEAN_MOTION_DDOT = 0

CCSDS_OMM_VERS = 2.0
CREATION_DATE  = 
ORIGINATOR     = 

OBJECT_NAME    = 2025-226D
OBJECT_ID      = 2025-226D
CENTER_NAME    = EARTH
REF_FRAME      = TEME
TIME_SYSTEM    = UTC
MEAN_ELEMENT_THEORY = SGP/SGP4

EPOCH          = 2025-10-17T22:42:20.181888
MEAN_MOTION    = 15.16526485
ECCENTRICITY   = .0019022
INCLINATION    = 97.6632
RA_OF_ASC_NODE = 5.1263
ARG_OF_PERICENTER = 287.2735
MEAN_ANOMALY   = 72.6416

EPHEMERIS_TYPE = 0
CLASSIFICATION_TYPE = U
NORAD_CAT_ID   = 65944
ELEMENT_SET_NO = 999
REV_AT_EPOCH   = 102
BSTAR          = 0
MEAN_MOTION_DOT = -.71E-6
MEAN_MOTION_DDOT = 0

CCSDS_OMM_VERS = 2.0
CREATION_DATE  = 
ORIGINATOR     = 

OBJECT_NAME    = SHIYAN-31
OBJECT_ID      = 2025-227A
CENTER_NAME    = EARTH
REF_FRAME      = TEME
TIME_SYSTEM    = UTC
MEAN_ELEMENT_THEORY = SGP/SGP4

EPOCH          = 2025-10-26T22:54:25.342272
MEAN_MOTION    = 15.20221430
ECCENTRICITY   = .00113244
INCLINATION    = 80.0035
RA_OF_ASC_NODE = 84.0150
ARG_OF_PERICENTER = 223.2796
MEAN_ANOMALY   = 136.7542

EPHEMERIS_TYPE = 0
CLASSIFICATION_TYPE = U
NORAD_CAT_ID   = 65945
ELEMENT_SET_NO = 999
REV_AT_EPOCH   = 206
BSTAR          = .43940315E-3
MEAN_MOTION_DOT = .956E-4
MEAN_MOTION_DDOT = 0

CCSDS_OMM_VERS = 2.0
CREATION_DATE  = 
ORIGINATOR     = 

OBJECT_NAME    = CZ-2D R/B
OBJECT_ID      = 2025-227B
CENTER_NAME    = EARTH
REF_FRAME      = TEME
TIME_SYSTEM    = UTC
MEAN_ELEMENT_THEORY = SGP/SGP4

EPOCH          = 2025-10-26T22:59:46.834080
MEAN_MOTION    = 15.27283851
ECCENTRICITY   = .0021503
INCLINATION    = 80.1542
RA_OF_ASC_NODE = 84.2708
ARG_OF_PERICENTER = 350.8849
MEAN_ANOMALY   = 9.1988

EPHEMERIS_TYPE = 0
CLASSIFICATION_TYPE = U
NORAD_CAT_ID   = 65946
ELEMENT_SET_NO = 999
REV_AT_EPOCH   = 207
BSTAR          = .43162821E-3
MEAN_MOTION_DOT = .11638E-3
MEAN_MOTION_DDOT = 0

CCSDS_OMM_VERS = 2.0
CREATION_DATE  = 
ORIGINATOR     = 

OBJECT_NAME    = KUIPER-00101
OBJECT_ID      = 2025-228A
CENTER_NAME    = EARTH
REF_FRAME      = TEME
TIME_SYSTEM    = UTC
MEAN_ELEMENT_THEORY = SGP/SGP4

EPOCH          = 2025-10-26T21:48:09.892512
MEAN_MOTION    = 15.34572695
ECCENTRICITY   = .00058897
INCLINATION    = 51.8801
RA_OF_ASC_NODE = 246.1684
ARG_OF_PERICENTER = 180.9826
MEAN_ANOMALY   = 179.1149

EPHEMERIS_TYPE = 0
CLASSIFICATION_TYPE = U
NORAD_CAT_ID   = 65947
ELEMENT_SET_NO = 999
REV_AT_EPOCH   = 322
BSTAR          = .54768199E-3
MEAN_MOTION_DOT = .18297E-3
MEAN_MOTION_DDOT = 0

CCSDS_OMM_VERS = 2.0
CREATION_DATE  = 
ORIGINATOR     = 

OBJECT_NAME    = KUIPER-00113
OBJECT_ID      = 2025-228B
CENTER_NAME    = EARTH
REF_FRAME      = TEME
TIME_SYSTEM    = UTC
MEAN_ELEMENT_THEORY = SGP/SGP4

EPOCH          = 2025-10-26T21:45:04.340736
MEAN_MOTION    = 15.34835437
ECCENTRICITY   = .00064059
INCLINATION    = 51.8806
RA_OF_ASC_NODE = 246.1574
ARG_OF_PERICENTER = 177.9412
MEAN_ANOMALY   = 182.1601

EPHEMERIS_TYPE = 0
CLASSIFICATION_TYPE = U
NORAD_CAT_ID   = 65948
ELEMENT_SET_NO = 999
REV_AT_EPOCH   = 322
BSTAR          = .95974186E-3
MEAN_MOTION_DOT = .3269E-3
MEAN_MOTION_DDOT = 0

