STARLINK-35473          
1 65937U 25225AD  25299.97201754  .00269255  00000+0  17772-2 0  9992
2 65937  53.1597  70.4686 0001002  56.0509 304.0606 15.74285201  2995
2025-226A               
1 65938U 25226A   25299.96322608  .00011528  00000+0  67821-3 0  9994
2 65938  97.6664  14.1395 0014498 226.8067 133.1953 15.11727834  2401
2025-226B               
1 65939U 25226B   25299.97936456  .00006468  00000+0  40421-3 0  9992
2 65939  97.6621  14.1105 0020515 230.0635 129.8792 15.09630287  2392
2025-226C               
1 65940U 25226C   25299.96439578  .00011542  00000+0  68109-3 0  9998
2 65940  97.6572  14.1212 0014453 224.6675 135.3391 15.11616174  2394
YOTSUBA-KULOVER         
1 65941U 98067XN  25299.43752335  .00050897  00000+0  81796-3 0  9996
2 65941  51.6338  16.4226 0002354 309.1775  50.9005 15.52498058  2491
BOTAN                   
1 65942U 98067XP  25299.62744068  .00072575  00000+0  11331-2 0  9996
2 65942  51.6339  15.4407 0004191 334.4540  25.6243 15.53142007  2523
E-KAGAKU-1              
1 65943U 98067XQ  25299.43713291  .00049272  00000+0  79166-3 0  9999
2 65943  51.6337  16.4198 0004085 323.6954  36.3758 15.52513453  2493
2025-226D               
1 65944U 25226D   25290.94606692 -.00000071  00000+0  00000+0 0  9992
2 65944  97.6632   5.1263 0019022 287.2735  72.6416 15.16526485  1020
SHIYAN-31               
1 65945U 25227A   25299.95445998  .00009560  00000+0  43940-3 0  9999
2 65945  80.0035  84.0150 0011324 223.2796 136.7542 15.20221430  2063
CZ-2D R/B               
1 65946U 25227B   25299.95818095  .00011638  00000+0  43163-3 0  9998
2 65946  80.1542  84.2708 0021503 350.8849   9.1988 15.27283851  2075
KUIPER-00101            
1 65947U 25228A   25299.90844783  .00018297  00000+0  54768-3 0  9999
2 65947  51.8801 246.1684 0005889 180.9826 179.1149 15.34572695  3227
KUIPER-00113            
1 65948U 25228B   25299.90630024  .00032690  00000+0  95974-3 0  9998
2 65948  51.8806 246.1574 0006405 177.9412 182.1601 15.34835437  3226
